<?xml version="1.0" encoding="UTF-8"?>
<ndm xmlns:xsi="http://www.w3.org/2001/XMLSchema-instance" xsi:noNamespaceSchemaLocation="https://sanaregistry.org/r/ndmxml_unqualified/ndmxml-2.0.0-master-2.0.xsd">
<omm id="CCSDS_OMM_VERS" version="2.0">
<header><CREATION_DATE/><ORIGINATOR/></header><body><segment><metadata><OBJECT_NAME>GLOBALSTAR M080</OBJECT_NAME><OBJECT_ID>2011-080B</OBJECT_ID><CENTER_NAME>EARTH</CENTER_NAME><REF_FRAME>TEME</REF_FRAME><TIME_SYSTEM>UTC</TIME_SYSTEM><MEAN_ELEMENT_THEORY>SGP4</MEAN_ELEMENT_THEORY></metadata><data><meanElements><EPOCH>2024-09-28T21:43:37.253856</EPOCH><MEAN_MOTION>12.62266187</MEAN_MOTION><ECCENTRICITY>.0000987</ECCENTRICITY><INCLINATION>52.0044</INCLINATION><RA_OF_ASC_NODE>125.4279</RA_OF_ASC_NODE><ARG_OF_PERICENTER>106.8044</ARG_OF_PERICENTER><MEAN_ANOMALY>355.4583</MEAN_ANOMALY></meanElements><tleParameters><EPHEMERIS_TYPE>0</EPHEMERIS_TYPE><CLASSIFICATION_TYPE>U</CLASSIFICATION_TYPE><NORAD_CAT_ID>38041</NORAD_CAT_ID><ELEMENT_SET_NO>999</ELEMENT_SET_NO><REV_AT_EPOCH>58993</REV_AT_EPOCH><BSTAR>.16956E-3</BSTAR><MEAN_MOTION_DOT>-.73E-6</MEAN_MOTION_DOT><MEAN_MOTION_DDOT>0</MEAN_MOTION_DDOT></tleParameters></data></segment></body></omm>
<omm id="CCSDS_OMM_VERS" version="2.0">
<header><CREATION_DATE/><ORIGINATOR/></header><body><segment><metadata><OBJECT_NAME>GLOBALSTAR M082</OBJECT_NAME><OBJECT_ID>2011-080C</OBJECT_ID><CENTER_NAME>EARTH</CENTER_NAME><REF_FRAME>TEME</REF_FRAME><TIME_SYSTEM>UTC</TIME_SYSTEM><MEAN_ELEMENT_THEORY>SGP4</MEAN_ELEMENT_THEORY></metadata><data><meanElements><EPOCH>2024-09-28T17:46:56.017632</EPOCH><MEAN_MOTION>12.62267081</MEAN_MOTION><ECCENTRICITY>.0000782</ECCENTRICITY><INCLINATION>52.0066</INCLINATION><RA_OF_ASC_NODE>81.3439</RA_OF_ASC_NODE><ARG_OF_PERICENTER>54.2157</ARG_OF_PERICENTER><MEAN_ANOMALY>320.9274</MEAN_ANOMALY></meanElements><tleParameters><EPHEMERIS_TYPE>0</EPHEMERIS_TYPE><CLASSIFICATION_TYPE>U</CLASSIFICATION_TYPE><NORAD_CAT_ID>38042</NORAD_CAT_ID><ELEMENT_SET_NO>999</ELEMENT_SET_NO><REV_AT_EPOCH>59048</REV_AT_EPOCH><BSTAR>.8543E-4</BSTAR><MEAN_MOTION_DOT>-.88E-6</MEAN_MOTION_DOT><MEAN_MOTION_DDOT>0</MEAN_MOTION_DDOT></tleParameters></data></segment></body></omm>
<omm id="CCSDS_OMM_VERS" version="2.0">
<header><CREATION_DATE/><ORIGINATOR/></header><body><segment><metadata><OBJECT_NAME>GLOBALSTAR M092</OBJECT_NAME><OBJECT_ID>2011-080D</OBJECT_ID><CENTER_NAME>EARTH</CENTER_NAME><REF_FRAME>TEME</REF_FRAME><TIME_SYSTEM>UTC</TIME_SYSTEM><MEAN_ELEMENT_THEORY>SGP4</MEAN_ELEMENT_THEORY></metadata><data><meanElements><EPOCH>2024-09-28T21:16:43.260384</EPOCH><MEAN_MOTION>12.62266511</MEAN_MOTION><ECCENTRICITY>.0000565</ECCENTRICITY><INCLINATION>52.0076</INCLINATION><RA_OF_ASC_NODE>171.2656</RA_OF_ASC_NODE><ARG_OF_PERICENTER>72.2975</ARG_OF_PERICENTER><MEAN_ANOMALY>5.3155</MEAN_ANOMALY></meanElements><tleParameters><EPHEMERIS_TYPE>0</EPHEMERIS_TYPE><CLASSIFICATION_TYPE>U</CLASSIFICATION_TYPE><NORAD_CAT_ID>38043</NORAD_CAT_ID><ELEMENT_SET_NO>999</ELEMENT_SET_NO><REV_AT_EPOCH>58895</REV_AT_EPOCH><BSTAR>.118E-4</BSTAR><MEAN_MOTION_DOT>-.102E-5</MEAN_MOTION_DOT><MEAN_MOTION_DDOT>0</MEAN_MOTION_DDOT></tleParameters></data></segment></body></omm>
<omm id="CCSDS_OMM_VERS" version="2.0">
<header><CREATION_DATE/><ORIGINATOR/></header><body><segment><metadata><OBJECT_NAME>GLOBALSTAR M090</OBJECT_NAME><OBJECT_ID>2011-080E</OBJECT_ID><CENTER_NAME>EARTH</CENTER_NAME><REF_FRAME>TEME</REF_FRAME><TIME_SYSTEM>UTC</TIME_SYSTEM><MEAN_ELEMENT_THEORY>SGP4</MEAN_ELEMENT_THEORY></metadata><data><meanElements><EPOCH>2024-09-28T21:00:48.474720</EPOCH><MEAN_MOTION>12.62268090</MEAN_MOTION><ECCENTRICITY>.0000803</ECCENTRICITY><INCLINATION>51.9881</INCLINATION><RA_OF_ASC_NODE>75.0787</RA_OF_ASC_NODE><ARG_OF_PERICENTER>74.3292</ARG_OF_PERICENTER><MEAN_ANOMALY>73.0166</MEAN_ANOMALY></meanElements><tleParameters><EPHEMERIS_TYPE>0</EPHEMERIS_TYPE><CLASSIFICATION_TYPE>U</CLASSIFICATION_TYPE><NORAD_CAT_ID>38044</NORAD_CAT_ID><ELEMENT_SET_NO>999</ELEMENT_SET_NO><REV_AT_EPOCH>59061</REV_AT_EPOCH><BSTAR>.81049E-4</BSTAR><MEAN_MOTION_DOT>-.89E-6</MEAN_MOTION_DOT><MEAN_MOTION_DDOT>0</MEAN_MOTION_DDOT></tleParameters></data></segment></body></omm>
<omm id="CCSDS_OMM_VERS" version="2.0">
<header><CREATION_DATE/><ORIGINATOR/></header><body><segment><metadata><OBJECT_NAME>GLOBALSTAR M086</OBJECT_NAME><OBJECT_ID>2011-080F</OBJECT_ID><CENTER_NAME>EARTH</CENTER_NAME><REF_FRAME>TEME</REF_FRAME><TIME_SYSTEM>UTC</TIME_SYSTEM><MEAN_ELEMENT_THEORY>SGP4</MEAN_ELEMENT_THEORY></metadata><data><meanElements><EPOCH>2024-09-28T17:08:05.404416</EPOCH><MEAN_MOTION>12.62267532</MEAN_MOTION><ECCENTRICITY>.0001738</ECCENTRICITY><INCLINATION>51.9891</INCLINATION><RA_OF_ASC_NODE>76.1008</RA_OF_ASC_NODE><ARG_OF_PERICENTER>96.4846</ARG_OF_PERICENTER><MEAN_ANOMALY>276.7557</MEAN_ANOMALY></meanElements><tleParameters><EPHEMERIS_TYPE>0</EPHEMERIS_TYPE><CLASSIFICATION_TYPE>U</CLASSIFICATION_TYPE><NORAD_CAT_ID>38045</NORAD_CAT_ID><ELEMENT_SET_NO>999</ELEMENT_SET_NO><REV_AT_EPOCH>59054</REV_AT_EPOCH><BSTAR>.94419E-4</BSTAR><MEAN_MOTION_DOT>-.87E-6</MEAN_MOTION_DOT><MEAN_MOTION_DDOT>0</MEAN_MOTION_DDOT></tleParameters></data></segment></body></omm>
<omm id="CCSDS_OMM_VERS" version="2.0">
<header><CREATION_DATE/><ORIGINATOR/></header><body><segment><metadata><OBJECT_NAME>GLOBALSTAR M097</OBJECT_NAME><OBJECT_ID>2013-005A</OBJECT_ID><CENTER_NAME>EARTH</CENTER_NAME><REF_FRAME>TEME</REF_FRAME><TIME_SYSTEM>UTC</TIME_SYSTEM><MEAN_ELEMENT_THEORY>SGP4</MEAN_ELEMENT_THEORY></metadata><data><meanElements><EPOCH>2024-09-28T21:30:34.162272</EPOCH><MEAN_MOTION>12.62270601</MEAN_MOTION><ECCENTRICITY>.0000757</ECCENTRICITY><INCLINATION>52.0072</INCLINATION><RA_OF_ASC_NODE>349.8329</RA_OF_ASC_NODE><ARG_OF_PERICENTER>85.3362</ARG_OF_PERICENTER><MEAN_ANOMALY>274.7591</MEAN_ANOMALY></meanElements><tleParameters><EPHEMERIS_TYPE>0</EPHEMERIS_TYPE><CLASSIFICATION_TYPE>U</CLASSIFICATION_TYPE><NORAD_CAT_ID>39072</NORAD_CAT_ID><ELEMENT_SET_NO>999</ELEMENT_SET_NO><REV_AT_EPOCH>53781</REV_AT_EPOCH><BSTAR>.777E-4</BSTAR><MEAN_MOTION_DOT>-.9E-6</MEAN_MOTION_DOT><MEAN_MOTION_DDOT>0</MEAN_MOTION_DDOT></tleParameters></data></segment></body></omm>

</ndm>
