GLOBALSTAR M080         
1 38041U 11080B   24272.90529229 -.00000073  00000+0  16956-3 0  9991
2 38041  52.0044 125.4279 0000987 106.8044 355.4583 12.62266187589938
GLOBALSTAR M082         
1 38042U 11080C   24272.74092613 -.00000088  00000+0  85430-4 0  9996
2 38042  52.0066  81.3439 0000782  54.2157 320.9274 12.62267081590485
GLOBALSTAR M092         
1 38043U 11080D   24272.88661181 -.00000102  00000+0  11800-4 0  9991
2 38043  52.0076 171.2656 0000565  72.2975   5.3155 12.62266511588952
GLOBALSTAR M090         
1 38044U 11080E   24272.87556105 -.00000089  00000+0  81049-4 0  9996
2 38044  51.9881  75.0787 0000803  74.3292  73.0166 12.62268090590615
GLOBALSTAR M086         
1 38045U 11080F   24272.71395144 -.00000087  00000+0  94419-4 0  9997
2 38045  51.9891  76.1008 0001738  96.4846 276.7557 12.62267532590541
GLOBALSTAR M097         
1 39072U 13005A   24272.89622873 -.00000090  00000+0  77700-4 0  9996
2 39072  52.0072 349.8329 0000757  85.3362 274.7591 12.62270601537819
